{
  "type": "FeatureCollection",
  "features": [
    {
      "type": "Feature",
      "properties": {
        "class_id": 1,
        "class_name": "Confirmed Oil Spill",
        "granule_id": "S1A_IW_GRDH_1SDV_20260929T100000_20260929T100025_050412_060789_A12B",
        "confidence_score": 0.962,
        "backscatter_dampening_db": -8.4,
        "damping_ratio": 6.9,
        "major_axis_orientation_deg": 58.5,
        "slick_length_km": 6.84,
        "slick_mean_width_km": 2.18,
        "area_km2": 14.82,
        "estimated_volume_bbls": 850
      },
      "geometry": {
        "type": "Polygon",
        "coordinates": [
          [
            [
              72.102,
              19.171
            ],
            [
              72.1105,
              19.1765
            ],
            [
              72.122,
              19.186
            ],
            [
              72.128,
              19.1915
            ],
            [
              72.125,
              19.194
            ],
            [
              72.114,
              19.187
            ],
            [
              72.106,
              19.179
            ],
            [
              72.098,
              19.173
            ],
            [
              72.102,
              19.171
            ]
          ]
        ]
      }
    },
    {
      "type": "Feature",
      "properties": {
        "class_id": 2,
        "class_name": "Low-wind / Look-alike Sheen Margin",
        "confidence_score": 0.35,
        "backscatter_dampening_db": -2.1
      },
      "geometry": {
        "type": "Polygon",
        "coordinates": [
          [
            [
              72.125,
              19.194
            ],
            [
              72.132,
              19.199
            ],
            [
              72.136,
              19.196
            ],
            [
              72.128,
              19.1915
            ],
            [
              72.125,
              19.194
            ]
          ]
        ]
      }
    },
    {
      "type": "Feature",
      "properties": {
        "class_id": 3,
        "class_name": "Ship Point Target (Metallic Backscatter Peak)",
        "backscatter_sigma0_db": 18.5,
        "associated_mmsi": 636018244
      },
      "geometry": {
        "type": "Point",
        "coordinates": [
          72.415,
          19.445
        ]
      }
    }
  ]
}